NAVSTAR 43 (USA 132)    
1 24876U 97035A   26063.49990195  .00000017  00000+0  00000+0 0  9990
2 24876  55.9354 102.6673 0097948  56.2637 304.7448  2.00563962209858
NAVSTAR 48 (USA 151)    
1 26407U 00040A   26063.83019017  .00000004  00000+0  00000+0 0  9991
2 26407  54.8755 219.3047 0122689 302.5325 230.1354  2.00568933187852
NAVSTAR 51 (USA 166)    
1 27663U 03005A   26063.41781287  .00000000  00000+0  00000+0 0  9995
2 27663  54.9073 219.1290 0148732  52.7169 318.0933  2.00566272169219
NAVSTAR 54 (USA 177)    
1 28190U 04009A   26063.42812631 -.00000020  00000+0  00000+0 0  9998
2 28190  54.9157 279.9188 0110961 169.0670   5.0968  2.00558098160848
NAVSTAR 56 (USA 180)    
1 28474U 04045A   26063.59277231 -.00000093  00000+0  00000+0 0  9992
2 28474  55.1946 329.1116 0170845 312.8352  43.6266  2.00573414156329
NAVSTAR 57 (USA 183)    
1 28874U 05038A   26063.66238218 -.00000018  00000+0  00000+0 0  9996
2 28874  54.9628 277.3946 0128798 295.3469  71.7592  2.00572995149741
NAVSTAR 58 (USA 190)    
1 29486U 06042A   26063.31283392  .00000005  00000+0  00000+0 0  9992
2 29486  54.6981 155.5038 0106734  52.8848 318.8123  2.00575351142299
NAVSTAR 59 (USA 192)    
1 29601U 06052A   26062.71518354 -.00000005  00000+0  00000+0 0  9995
2 29601  54.9574 218.1844 0087880  89.3488 271.6075  2.00551577141290
NAVSTAR 60 (USA 196)    
1 32260U 07047A   26063.02203272  .00000000  00000+0  00000+0 0  9994
2 32260  54.0154  84.3992 0163601  85.9536 275.9759  2.00560739134703
NAVSTAR 61 (USA 199)    
1 32384U 07062A   26063.33794595 -.00000018  00000+0  00000+0 0  9995
2 32384  55.1148 278.3662 0032924 160.6719 195.5030  2.00553526133402
NAVSTAR 62 (USA 201)    
1 32711U 08012A   26063.43887733  .00000006  00000+0  00000+0 0  9999
2 32711  54.4824 154.1108 0206979 246.1865 111.6633  2.00569187131653
NAVSTAR 64 (USA 206)    
1 35752U 09043A   26063.17655762 -.00000084  00000+0  00000+0 0  9995
2 35752  56.1481  31.5766 0051698  80.7048 105.8063  2.00560440121258
NAVSTAR 65 (USA 213)    
1 36585U 10022A   26063.82760834  .00000002  00000+0  00000+0 0  9997
2 36585  54.2888 212.7639 0127348  65.8806 347.4855  2.00557291115501
NAVSTAR 67 (USA 239)    
1 38833U 12053A   26063.11837641  .00000006  00000+0  00000+0 0  9998
2 38833  53.5658 147.9052 0176935  64.7808 297.0848  2.00565801 97338
NAVSTAR 68 (USA 242)    
1 39166U 13023A   26060.98893270  .00000006  00000+0  00000+0 0  9998
2 39166  54.5878 273.3391 0141552  49.8819 311.3944  2.00564153 93732
NAVSTAR 69 (USA 248)    
1 39533U 14008A   26062.98170139  .00000002  00000+0  00000+0 0  9990
2 39533  53.6377 153.6123 0082291 228.2820 131.0416  2.00553063 87570
NAVSTAR 70 (USA 251)    
1 39741U 14026A   26063.75840403 -.00000098  00000+0  00000+0 0  9991
2 39741  56.5463 335.5859 0039865 324.5417  35.2288  2.00568672 86446
